CUBEBUG-2 (LO-74)       
1 39440U 13066AA  26189.83232878  .00001930  00000+0  18159-3 0  9992
2 39440  97.8908 138.9052 0056173 317.0714  42.6128 14.93942220680223
FUNCUBE-1 (AO-73)       
1 39444U 13066AE  26189.86389517  .00004949  00000+0  30572-3 0  9998
2 39444  97.8287 161.7669 0037692 128.2905 232.1724 15.09765418682932
UWE-3                   
1 39446U 13066AG  26189.33612893  .00001733  00000+0  15204-3 0  9991
2 39446  97.8696 145.5560 0047521 248.4998 111.1154 14.97171964680740
UNISAT-6                
1 40012U 14033C   26189.91644684  .00001495  00000+0  16465-3 0  9999
2 40012  97.7901 342.2499 0044700 358.6931   1.4162 14.88350630649398
DUCHIFAT-1              
1 40021U 14033M   26189.73435118  .00119204  00000+0  99492-3 0  9998
2 40021  98.0439 252.0028 0001812 257.7492 102.3565 15.69682214659128
QB50P1                  
1 40025U 14033R   26189.50144571  .00005677  00000+0  27786-3 0  9992
2 40025  98.0973 202.1461 0009934 144.4347 215.7549 15.18598212656267
LILACSAT-2              
1 40908U 15049K   26189.93867382  .00013110  00000+0  21773-3 0  9990
2 40908  97.4632 227.6139 0007916 160.2361 199.9199 15.52196942599123
FOX-1A (AO-85)          
1 40967U 15058D   26189.34630242  .00001594  00000+0  15149-3 0  9996
2 40967  64.7733 213.2226 0131833  48.4039 312.8281 14.91062267116723
CAS-2T & KS-1Q          
1 41847U 16066G   26189.77980185  .00000981  00000+0  14496-3 0  9998
2 41847  98.3814 265.2689 0342554  64.1810 299.4295 14.44760997507913
RADFXSAT (FOX-1B)       
1 43017U 17073E   26189.43942832  .00004488  00000+0  19744-3 0  9995
2 43017  97.4685  56.2209 0148105 255.0605 103.4188 15.13003288468602
DIWATA-2B               
1 43678U 18084H   26189.97609216  .00001695  00000+0  13940-3 0  9995
2 43678  98.1219  27.1373 0013062 103.2459 257.0222 15.00548040419482
ES'HAIL 2               
1 43700U 18090A   26189.87336187  .00000159  00000+0  00000+0 0  9994
2 43700   0.0148 333.1461 0002357 182.1152 111.7868  1.00272991 27896
FOX-1CLIFF (AO-95)      
1 43770U 18099N   26189.63795887  .00008250  00000+0  31216-3 0  9997
2 43770  97.4375 249.8099 0006947 267.7864  92.2580 15.27180525416491
ITASAT                  
1 43786U 18099AE  26189.95524999  .00004481  00000+0  21506-3 0  9996
2 43786  97.4019 241.0343 0010734 275.6257  84.3754 15.19331973416213
JY1SAT (JO-97)          
1 43803U 18099AX  26189.68738342  .00012315  00000+0  37202-3 0  9990
2 43803  97.4119 252.6045 0006239 178.6652 181.4609 15.34370872416921
UWE-4                   
1 43880U 18111E   26189.75752430  .00026748  00000+0  52100-3 0  9991
2 43880  97.5839 119.1632 0005108 221.6996 138.3865 15.47518784414113
TIANYAN 01              
1 44881U 19093C   26189.98839394 -.00000155  00000+0 -11442-4 0  9994
2 44881  97.7520 261.6886 0014151  21.4117 338.7688 14.86553224354658
RS-44 & BREEZE-KM R/B   
1 44909U 19096E   26189.89582005  .00000007  00000+0 -25699-4 0  9996
2 44909  82.5232 325.2795 0218560  93.6470 268.9652 12.79748910305121
SALSAT                  
1 46495U 20068K   26189.92478988  .00004831  00000+0  16857-3 0  9990
2 46495  97.8859 194.3174 0008548 216.5599 143.5058 15.30112926318689
XW-3 (CAS-9)            
1 50466U 21131B   26189.99091983  .00000205  00000+0  76983-4 0  9996
2 50466  98.4980 282.2634 0004942  46.0548 314.1048 14.41378020238255
GREENCUBE (IO-117)      
1 53109U 22080E   26189.19521522 -.00000003  00000+0  00000+0 0  9995
2 53109  70.1427 290.9400 0009007 285.1341  74.8322  6.42583247 93419
UMKA 1 (RS40S)          
1 57172U 23091G   26189.93642361  .00003598  00000+0  16475-3 0  9997
2 57172  97.5040 248.5517 0013611  49.8762 310.3664 15.21074757167319
CUBESX-HSE 3 (RS42S)    
1 57178U 23091N   26189.93140371  .00009069  00000+0  29764-3 0  9991
2 57178  97.5082 255.7999 0010354  24.2101 335.9625 15.31778604167751
MONITOR-3 (RS58S)       
1 57180U 23091Q   26189.93914630  .00006971  00000+0  25527-3 0  9993
2 57180  97.5073 253.5495 0011665  31.3235 328.8697 15.28290083167615
MONITOR-4 (RS57S)       
1 57182U 23091S   26189.91699477  .00007091  00000+0  25892-3 0  9991
2 57182  97.5067 253.4995 0011656  31.7439 328.4501 15.28376126167617
MONITOR-2 (RS39S)       
1 57184U 23091U   26189.91944108  .00003200  00000+0  15546-3 0  9990
2 57184  97.5062 248.0629 0012000  44.4553 315.7642 15.19116917167255
SVYATOBOR 1 (RS60S)     
1 57187U 23091X   26189.94922725  .00005675  00000+0  21681-3 0  9992
2 57187  97.5080 253.8903 0009395  26.1805 333.9907 15.26993512167637
VIZARD-METEO (RS38S)    
1 57189U 23091Z   26189.96635543  .00011726  00000+0  32872-3 0  9993
2 57189  97.5081 259.8970 0006256   4.7682 355.3621 15.36738741168036
POLYTECH-UNIVERSE 3 (R*)
1 57191U 23091AB  26189.94369837  .00003208  00000+0  15466-3 0  9990
2 57191  97.5037 247.5911 0016560  57.9582 302.3259 15.19327916167258
UTMN 2 (RS27S)          
1 57203U 23091AP  26189.93724060  .00008726  00000+0  27952-3 0  9999
2 57203  97.5077 257.4661 0007404  13.2802 346.8633 15.32598761167875
