OBJECT_NAME,OBJECT_ID,EPOCH,MEAN_MOTION,ECCENTRICITY,INCLINATION,RA_OF_ASC_NODE,ARG_OF_PERICENTER,MEAN_ANOMALY,EPHEMERIS_TYPE,CLASSIFICATION_TYPE,NORAD_CAT_ID,ELEMENT_SET_NO,REV_AT_EPOCH,BSTAR,MEAN_MOTION_DOT,MEAN_MOTION_DDOT
CUBEBUG-2 (LO-74),2013-066AA,2026-07-08T19:58:33.206592,14.93942220,.00561731,97.8908,138.9052,317.0714,42.6128,0,U,39440,999,68022,.18158743E-3,.193E-4,0
FUNCUBE-1 (AO-73),2013-066AE,2026-07-08T20:44:00.542688,15.09765418,.00376927,97.8287,161.7669,128.2905,232.1724,0,U,39444,999,68293,.30571622E-3,.4949E-4,0
UWE-3,2013-066AG,2026-07-08T08:04:01.539552,14.97171964,.00475215,97.8696,145.5560,248.4998,111.1154,0,U,39446,999,68074,.1520418E-3,.1733E-4,0
UNISAT-6,2014-033C,2026-07-08T21:59:41.006976,14.88350630,.00447002,97.7901,342.2499,358.6931,1.4162,0,U,40012,999,64939,.16464665E-3,.1495E-4,0
DUCHIFAT-1,2014-033M,2026-07-08T17:37:27.941952,15.69682214,.00018129,98.0439,252.0028,257.7492,102.3565,0,U,40021,999,65912,.9949152E-3,.119204E-2,0
QB50P1,2014-033R,2026-07-08T12:02:04.909344,15.18598212,.00099345,98.0973,202.1461,144.4347,215.7549,0,U,40025,999,65626,.27786497E-3,.5677E-4,0
LILACSAT-2,2015-049K,2026-07-08T22:31:41.418048,15.52196942,.00079166,97.4632,227.6139,160.2361,199.9199,0,U,40908,999,59912,.21773076E-3,.1311E-3,0
FOX-1A (AO-85),2015-058D,2026-07-08T08:18:40.529088,14.91062267,.01318339,64.7733,213.2226,48.4039,312.8281,0,U,40967,999,11672,.15149463E-3,.1594E-4,0
CAS-2T & KS-1Q,2016-066G,2026-07-08T18:42:54.879840,14.44760997,.03425546,98.3814,265.2689,64.1810,299.4295,0,U,41847,999,50791,.1449633E-3,.981E-5,0
RADFXSAT (FOX-1B),2017-073E,2026-07-08T10:32:46.606848,15.13003288,.0148105,97.4685,56.2209,255.0605,103.4188,0,U,43017,999,46860,.1974387E-3,.4488E-4,0
DIWATA-2B,2018-084H,2026-07-08T23:25:34.362624,15.00548040,.00130622,98.1219,27.1373,103.2459,257.0222,0,U,43678,999,41948,.13940059E-3,.1695E-4,0
ES'HAIL 2,2018-090A,2026-07-08T20:57:38.465568,1.00272991,.00023573,0.0148,333.1461,182.1152,111.7868,0,U,43700,999,2789,0,.159E-5,0
FOX-1CLIFF (AO-95),2018-099N,2026-07-08T15:18:39.646368,15.27180525,.00069474,97.4375,249.8099,267.7864,92.2580,0,U,43770,999,41649,.31216308E-3,.825E-4,0
ITASAT,2018-099AE,2026-07-08T22:55:33.599136,15.19331973,.0010734,97.4019,241.0343,275.6257,84.3754,0,U,43786,999,41621,.21505947E-3,.4481E-4,0
JY1SAT (JO-97),2018-099AX,2026-07-08T16:29:49.927488,15.34370872,.00062391,97.4119,252.6045,178.6652,181.4609,0,U,43803,999,41692,.37201891E-3,.12315E-3,0
UWE-4,2018-111E,2026-07-08T18:10:50.099520,15.47518784,.00051084,97.5839,119.1632,221.6996,138.3865,0,U,43880,999,41411,.52100444E-3,.26748E-3,0
TIANYAN 01,2019-093C,2026-07-08T23:43:17.236416,14.86553224,.00141513,97.7520,261.6886,21.4117,338.7688,0,U,44881,999,35465,-.11442225E-4,-.155E-5,0
RS-44 & BREEZE-KM R/B,2019-096E,2026-07-08T21:29:58.852320,12.79748910,.02185609,82.5232,325.2795,93.6470,268.9652,0,U,44909,999,30512,-.25698733E-4,.7E-7,0
SALSAT,2020-068K,2026-07-08T22:11:41.845632,15.30112926,.00085482,97.8859,194.3174,216.5599,143.5058,0,U,46495,999,31868,.16857153E-3,.4831E-4,0
XW-3 (CAS-9),2021-131B,2026-07-08T23:46:55.473312,14.41378020,.00049424,98.4980,282.2634,46.0548,314.1048,0,U,50466,999,23825,.76982816E-4,.205E-5,0
GREENCUBE (IO-117),2022-080E,2026-07-08T04:41:06.595008,6.42583247,.00090072,70.1427,290.9400,285.1341,74.8322,0,U,53109,999,9341,0,-.3E-7,0
UMKA 1 (RS40S),2023-091G,2026-07-08T22:28:26.999904,15.21074757,.00136111,97.5040,248.5517,49.8762,310.3664,0,U,57172,999,16731,.16475334E-3,.3598E-4,0
CUBESX-HSE 3 (RS42S),2023-091N,2026-07-08T22:21:13.280544,15.31778604,.00103543,97.5082,255.7999,24.2101,335.9625,0,U,57178,999,16775,.2976389E-3,.9069E-4,0
MONITOR-3 (RS58S),2023-091Q,2026-07-08T22:32:22.240320,15.28290083,.00116659,97.5073,253.5495,31.3235,328.8697,0,U,57180,999,16761,.25526747E-3,.6971E-4,0
MONITOR-4 (RS57S),2023-091S,2026-07-08T22:00:28.348128,15.28376126,.00116568,97.5067,253.4995,31.7439,328.4501,0,U,57182,999,16761,.2589235E-3,.7091E-4,0
MONITOR-2 (RS39S),2023-091U,2026-07-08T22:03:59.709312,15.19116917,.00120001,97.5062,248.0629,44.4553,315.7642,0,U,57184,999,16725,.15545596E-3,.32E-4,0
SVYATOBOR 1 (RS60S),2023-091X,2026-07-08T22:46:53.234400,15.26993512,.00093959,97.5080,253.8903,26.1805,333.9907,0,U,57187,999,16763,.21680662E-3,.5675E-4,0
VIZARD-METEO (RS38S),2023-091Z,2026-07-08T23:11:33.109152,15.36738741,.00062568,97.5081,259.8970,4.7682,355.3621,0,U,57189,999,16803,.32872282E-3,.11726E-3,0
POLYTECH-UNIVERSE 3 (RS46S),2023-091AB,2026-07-08T22:38:55.539168,15.19327916,.00165606,97.5037,247.5911,57.9582,302.3259,0,U,57191,999,16725,.15466346E-3,.3208E-4,0
UTMN 2 (RS27S),2023-091AP,2026-07-08T22:29:37.587840,15.32598761,.00074049,97.5077,257.4661,13.2802,346.8633,0,U,57203,999,16787,.27951818E-3,.8726E-4,0
